[ {"name": "STARLINK-34778", "line1": "1 65021U 25161G   26105.77280951  .00008415  00000+0  29589-3 0  9995", "line2": "2 65021  53.1566 122.2236 0001308  95.4927 264.6222 15.30201211 40990"}, {"name": "STARLINK-34789", "line1": "1 65022U 25161H   26105.31138435  .00006437  00000+0  22929-3 0  9998", "line2": "2 65022  53.1589 124.3197 0001388  98.1549 261.9609 15.30198231 40922"}, {"name": "STARLINK-34858", "line1": "1 65023U 25161J   26105.36720203  .00005401  00000+0  19436-3 0  9993", "line2": "2 65023  53.1593 123.9576 0001458  92.6103 267.5065 15.30200190 40934"}, {"name": "STARLINK-34773", "line1": "1 65024U 25161K   26105.73376169  .00014597  00000+0  50387-3 0  9999", "line2": "2 65024  53.1556 121.9738 0001623  40.2022 319.9099 15.30208404 40996"}, {"name": "STARLINK-34727", "line1": "1 65025U 25161L   26105.26706191  .00007636  00000+0  26969-3 0  9995", "line2": "2 65025  53.1574 124.0424 0001183  79.8574 280.2560 15.30198789 40957"}, {"name": "STARLINK-34804", "line1": "1 65026U 25161M   26105.75381348  .00002737  00000+0  10448-3 0  9995", "line2": "2 65026  53.1576 122.1021 0001579  65.1360 294.9804 15.30204732 41019"}, {"name": "STARLINK-34655", "line1": "1 65027U 25161N   26105.32299573  .00009142  00000+0  32021-3 0  9995", "line2": "2 65027  53.1594 124.3873 0001334  80.8948 279.2204 15.30221635 40935"}, {"name": "STARLINK-34807", "line1": "1 65028U 25161P   26105.06584084  .00018195  00000+0  62478-3 0  9998", "line2": "2 65028  53.1578 124.9184 0001712  94.0937 266.0259 15.30207555 40900"}, {"name": "STARLINK-34731", "line1": "1 65029U 25161Q   26105.35876698  .00006090  00000+0  21747-3 0  9991", "line2": "2 65029  53.1576 123.9044 0001380  60.3370 299.7768 15.30214894 40947"}, {"name": "STARLINK-34614", "line1": "1 65030U 25161R   26105.31877106  .00005760  00000+0  20645-3 0  9993", "line2": "2 65030  53.1593 124.3660 0001309  85.7916 274.3235 15.30199017 40931"}, {"name": "STARLINK-34677", "line1": "1 65031U 25161S   26105.77175279  .00008801  00000+0  30892-3 0  9990", "line2": "2 65031  53.1610 122.2136 0001084 110.6880 249.4237 15.30200444 39902"}, {"name": "STARLINK-34656", "line1": "1 65032U 25161T   26105.76964009  .00011701  00000+0  40640-3 0  9992", "line2": "2 65032  53.1603 122.2008 0001045  98.8096 261.3023 15.30213424 41008"}, {"name": "STARLINK-34671", "line1": "1 65033U 25161U   26105.83335647  .01919171  00000+0  14444-1 0  9991", "line2": "2 65033  53.1595 120.2773 0001353 118.0509 335.9167 15.68988671  5890"}, {"name": "STARLINK-34610", "line1": "1 65034U 25161V   26105.75592288  .00003284  00000+0  12292-3 0  9998", "line2": "2 65034  53.1582 122.1160 0001373  68.9311 291.1837 15.30207805 39902"}, {"name": "STARLINK-34286", "line1": "1 65035U 25161W   26105.74748078  .00009175  00000+0  32148-3 0  9995", "line2": "2 65035  53.1583 122.0620 0001076  72.4635 287.6483 15.30203893 39903"}, {"name": "STARLINK-34770", "line1": "1 65036U 25161X   26105.76647547  .00009326  00000+0  32657-3 0  9990", "line2": "2 65036  53.1610 122.1803 0001176  87.5020 272.6115 15.30202741 39902"}, {"name": "STARLINK-34776", "line1": "1 65037U 25161Y   26105.37038734  .00021832  00000+0  74721-3 0  9994", "line2": "2 65037  53.1603 123.9732 0000985 106.4405 253.6704 15.30193469 39842"}, {"name": "STARLINK-34827", "line1": "1 65038U 25161Z   26104.47906251  .00009360  00000+0  32771-3 0  9994", "line2": "2 65038  53.1585 127.6568 0001075  88.8001 271.3123 15.30203901 39717"}, {"name": "STARLINK-34721", "line1": "1 65039U 25161AA  26105.32604477  .00008309  00000+0  29235-3 0  9998", "line2": "2 65039  53.1579 123.6953 0001158  83.1353 276.9780 15.30199393 39848"}, {"name": "STARLINK-34819", "line1": "1 65040U 25161AB  26105.32404019  .00001039  00000+0  47215-4 0  9992", "line2": "2 65040  53.1582 124.3912 0001417  92.9096 267.2067 15.30201950 39830"}, {"name": "STARLINK-34820", "line1": "1 65041U 25161AC  26105.73903897  .00005936  00000+0  21237-3 0  9991", "line2": "2 65041  53.1567 122.0066 0001246  72.8414 287.2723 15.30202085 39909"}, {"name": "STARLINK-34824", "line1": "1 65042U 25161AD  26105.33870885  .00007223  00000+0  25578-3 0  9991", "line2": "2 65042  53.1590 123.7741 0001722  82.1709 277.9487 15.30198524 39842"}, {"name": "STARLINK-34788", "line1": "1 65056U 25165A   26105.72950527  .00001326  00000+0  96105-4 0  9998", "line2": "2 65056  97.6025 183.7360 0001218 187.2011 172.9198 15.05649655 40369"}, {"name": "STARLINK-34745", "line1": "1 65057U 25165B   26105.68242800  .00001349  00000+0  97654-4 0  9997", "line2": "2 65057  97.6031 183.6458 0000587 197.6693 162.4514 15.05650147 40356"}, {"name": "STARLINK-34779", "line1": "1 65058U 25165C   26105.72673500  .00002863  00000+0  20253-3 0  9990", "line2": "2 65058  97.6027 183.7402 0000813 185.9412 174.1805 15.05655030 40363"}, {"name": "STARLINK-34803", "line1": "1 65059U 25165D   26105.72120098  .00001335  00000+0  96720-4 0  9996", "line2": "2 65059  97.6031 183.7498 0000559 137.6477 222.4793 15.05648234 40367"}, {"name": "STARLINK-34717", "line1": "1 65060U 25165E   26105.64366135  .00003768  00000+0  26516-3 0  9990", "line2": "2 65060  97.6052 183.7005 0001644 227.6411 132.4676 15.05658858 40352"}, {"name": "STARLINK-34750", "line1": "1 65061U 25165F   26105.76276725 -.00014422  00000+0 -99885-3 0  9999", "line2": "2 65061  97.6023 183.8466 0000562 217.5440 142.5748 15.05592733 40374"}, {"name": "STARLINK-34708", "line1": "1 65062U 25165G   26105.79875073  .00006295  00000+0  44013-3 0  9994", "line2": "2 65062  97.6037 183.8003 0001175 199.0882 161.0301 15.05649530 40371"}, {"name": "STARLINK-34798", "line1": "1 65063U 25165H   26105.77104481  .00001869  00000+0  13368-3 0  9992", "line2": "2 65063  97.6039 183.8391 0001213 204.3377 155.7792 15.05651597 40376"}, {"name": "STARLINK-34793", "line1": "1 65064U 25165J   26105.64645785  .00011203  00000+0  77938-3 0  9992", "line2": "2 65064  97.6032 183.6937 0001304 194.0784 166.0406 15.05652676 40356"}, {"name": "STARLINK-34806", "line1": "1 65065U 25165K   26105.68796714  .00003099  00000+0  21886-3 0  9991", "line2": "2 65065  97.6048 183.6401 0001612  91.2161 268.9251 15.05652837 40358"}, {"name": "STARLINK-34739", "line1": "1 65066U 25165L   26105.76827838  .00005590  00000+0  39107-3 0  9996", "line2": "2 65066  97.6032 183.8414 0000545 167.9889 192.1351 15.05673905 40370"}, {"name": "STARLINK-34802", "line1": "1 65067U 25165M   26105.80149492 -.00000615  00000+0 -38391-4 0  9995", "line2": "2 65067  97.6044 183.7941 0000973 172.1779 187.9463 15.05649891 40372"}, {"name": "STARLINK-34810", "line1": "1 65068U 25165N   26105.80980598  .00002571  00000+0  18232-3 0  9998", "line2": "2 65068  97.6037 183.7851 0000543 148.3000 211.8260 15.05654212 40375"}, {"name": "STARLINK-34809", "line1": "1 65069U 25165P   26105.80427160  .00001508  00000+0  10869-3 0  9997", "line2": "2 65069  97.6040 183.7933 0000833 122.6583 237.4724 15.05649561 40374"}, {"name": "STARLINK-34794", "line1": "1 65070U 25165Q   26105.75165554  .00002493  00000+0  17691-3 0  9993", "line2": "2 65070  97.6029 183.7072 0000528 111.1435 248.9849 15.05648999 40365"}, {"name": "STARLINK-34805", "line1": "1 65071U 25165R   26105.81257517  .00002936  00000+0  20761-3 0  9996", "line2": "2 65071  97.6040 183.7817 0000663 185.5442 174.5777 15.05653321 40379"}, {"name": "STARLINK-34735", "line1": "1 65072U 25165S   26105.71843051  .00002883  00000+0  20395-3 0  9994", "line2": "2 65072  97.6024 183.7528 0000784 192.1167 168.0041 15.05651819 40364"}, {"name": "STARLINK-34781", "line1": "1 65073U 25165T   26105.75997159  .00000343  00000+0  27940-4 0  9991", "line2": "2 65073  97.6035 183.8524 0000717 127.6728 232.4564 15.05656629 40377"}, {"name": "STARLINK-34780", "line1": "1 65074U 25165U   26105.80703779  .00002396  00000+0  17016-3 0  9993", "line2": "2 65074  97.6039 183.7901 0000856 116.2082 243.9233 15.05654194 40376"}, {"name": "STARLINK-34771", "line1": "1 65078U 25167A   26105.51123338  .00011636  00000+0  40442-3 0  9990", "line2": "2 65078  53.1603 213.1008 0001136  83.2705 276.8425 15.30197170 39153"}, {"name": "STARLINK-34634", "line1": "1 65079U 25167B   26105.58921193  .00007707  00000+0  27206-3 0  9990", "line2": "2 65079  53.1584 212.8794 0001111 103.1156 256.9968 15.30200198 39162"}, {"name": "STARLINK-34267", "line1": "1 65080U 25167C   26105.47335457  .00008159  00000+0  28726-3 0  9992", "line2": "2 65080  53.1585 213.5732 0001210  87.2006 272.9133 15.30202260 40369"}, {"name": "STARLINK-34561", "line1": "1 65081U 25167D   26105.56915884  .00009748  00000+0  34084-3 0  9990", "line2": "2 65081  53.1607 212.7497 0001036  88.3318 271.7801 15.30198425 40410"}, {"name": "STARLINK-34626", "line1": "1 65082U 25167E   26105.59187144  .00017812  00000+0  61186-3 0  9998", "line2": "2 65082  53.1584 215.0570 0001053  72.8848 287.2267 15.30211276 39133"}, {"name": "STARLINK-34247", "line1": "1 65083U 25167F   26105.58287649  .00003196  00000+0  11999-3 0  9996", "line2": "2 65083  53.1585 212.8363 0000431  15.6117 344.4896 15.30191699 39166"}, {"name": "STARLINK-34601", "line1": "1 65084U 25167G   26105.56662713  .00008651  00000+0  30382-3 0  9992", "line2": "2 65084  53.1616 215.5243 0001051 110.3858 249.7256 15.30203079 39122"}, {"name": "STARLINK-34792", "line1": "1 65085U 25167H   26105.83335647  .02032375  00000+0  88764-2 0  9994", "line2": "2 65085  53.1601 211.9677 0001325  88.3896  26.2353 15.81408892  5808"}, {"name": "STARLINK-34822", "line1": "1 65086U 25167J   26105.58562332  .00002834  00000+0  10779-3 0  9997", "line2": "2 65086  53.1597 215.6459 0000362 354.0259   6.0737 15.30188965 39122"}, {"name": "STARLINK-34686", "line1": "1 65087U 25167K   26104.60273831  .00016172  00000+0  55686-3 0  9999", "line2": "2 65087  53.1601 220.1758 0001302  72.1963 287.9179 15.30204686 38978"}, {"name": "STARLINK-34594", "line1": "1 65088U 25167L   26105.44866069  .00009407  00000+0  32933-3 0  9997", "line2": "2 65088  53.1603 216.2117 0001064  77.8037 282.3083 15.30199863 39104"}]